placeId,name,address,latitude,longitude
ChIJu0nNBrIXcTERCYYHSj3FVIw,Thiên Đường Săn Mây Cầu Đất,"VHV8+9C, Xuân Trường, Da Lat, Lam Dong 630000, Vietnam",11.8922897,108.5684294
ChIJQTZ0-Z1ZwokRhl9v1FaVF0A,Hearth,"403 E 12th St, New York, NY 10009, USA",40.7300263,-73.9831883
ChIJ6TIr1bdZwokRwODfMs7T90g,K'Far,"97 Wythe Ave, Brooklyn, NY 11249, USA",40.7207031,-73.958786
ChIJJWju2R5ZwokRFzQHkRkc1yU,Lady Wong Patisserie Midtown,"135 W 50th St, New York, NY 10020, USA",40.760885599999995,-73.9825548
ChIJT994RulZwokRdgqQX0zc3QY,La Cabra Bakery,"152 2nd Ave, New York, NY 10003, USA",40.729445899999995,-73.9868353
ChIJ-QmJLA9ZwokRT_KbhxO-3y8,Breads Bakery,"1230 6th Ave, New York, NY 10020, USA",40.7587774,-73.9808338
ChIJU0c2Y6lZwokRKlyc_R8HN88,Cho Dang Gol,"55 W 35th St, New York, NY 10001, USA",40.750162499999995,-73.9863713
ChIJSawH-SBZwokRIHyvQj_8Qug,Bagel Pub Penn District,"350 7th Ave, New York, NY 10001, USA",40.7482179,-73.99287129999999
ChIJbVtD_4BZwokRVJcC9hll1l8,Broad Nosh Bagels Deli & Catering 58th Street,"314 W 58th St, New York, NY 10019, USA",40.767654199999996,-73.9832955
ChIJD8KzL1xbwokRganKQKjCRZQ,Tin Building by Jean-Georges,"96 South St, New York, NY 10038, USA",40.70619500000001,-74.00226909999999
ChIJtSiEHwBZwokRvaIX7do3E7Y,OKONOMI / YUJI Ramen Manhattan,"36 W 26th St, New York, NY 10010, USA",40.7442476,-73.9906333
ChIJBy4UlltZwokR3Lo6DCC9r_A,Patisserie Tomoko,"568 Union Ave, Brooklyn, NY 11211, USA",40.7177778,-73.9519444
ChIJNxEu8SZawokRARkMLjXhyBY,Apotheke Chinatown,"9 Doyers St, New York, NY 10013, USA",40.7144,-73.99817999999999
ChIJt8rEHyhawokR5iJZu_Em_g4,Spicy Village,"68 Forsyth St B, New York, NY 10002, USA",40.717002799999996,-73.9934222
ChIJI25hF09ZwokRnmmiXXONRf4,Double Chicken Please,"115 Allen St, New York, NY 10002, USA",40.719592,-73.9904612
ChIJwxHj5iBZwokR_pY9e5OhHNs,Book Club Bar,"197 E 3rd St, New York, NY 10009, USA",40.723003999999996,-73.983206
ChIJ__-z7kBZwokRezHqB39zBLI,Oxomoco,"128 Greenpoint Ave, Brooklyn, NY 11222, USA",40.7298214,-73.95547599999999
ChIJ01Ckk51ZwokRVkdfmRgkFA0,Nai,"84 2nd Ave, New York, NY 10003, USA",40.7265671,-73.98890999999999
ChIJidmaBvdZwokRpeaRMeb_rX4,Radio Bakery,"135 India St, Brooklyn, NY 11222, USA",40.7323915,-73.9550678
ChIJ-WrjMEBZwokRWvZf5dIHJvA,AOI Kitchen,"320 E 6th St, New York, NY 10003, USA",40.726783499999996,-73.9876152
ChIJlT3peYFZwokRkTXxmSnvS4g,Devoción,"600 Lexington Ave, New York, NY 10022, USA",40.758131999999996,-73.9713838
ChIJWWFYX6hZwokRiVPlneRsibg,Turntable Chicken Jazz,"20 W 33rd St, New York, NY 10001, USA",40.748159799999996,-73.9864242
ChIJ-zI-4PJZwokR4_xle0aFCIk,RYNN Thai Restaurant & Bar,"309 E 5th St, New York, NY 10003, USA",40.7268045,-73.9882662
ChIJL484G7803YkRK5v3lIRtJC4,Magazzino Italian Art,"2700 US-9, Cold Spring, NY 10516, USA",41.429749,-73.914816
ChIJY7gqh1RZwokRf1crJ0UzWXU,Pier 57 Rooftop Park,"57 Hudson River Greenway, New York, NY 10011, USA",40.7436531,-74.0106802
ChIJTbLWqhvMwokR_0zgnzzYUo8,MANITOGA / The Russel Wright Design Center,"584 NY-9D, Garrison, NY 10524, USA",41.3485649,-73.9526328
ChIJqTBaWiFZwokRahNVGgm3T2A,Osamil Upstairs,"5 W 31st St 2nd floor, New York, NY 10001, USA",40.746961,-73.9864309
ChIJRy7Z-I1ZwokRQm17a6QDJ6E,Bar Moga,"128 W Houston St, New York, NY 10012, USA",40.727819499999995,-74.0010896
ChIJ6-Q2PJJZwokRqXUdFUYb--Y,Porto Rico Importing Co.,"201 Bleecker St, New York, NY 10012, USA",40.7294917,-74.0016204
ChIJAQCweZxZwokRmyqYmYM3Ze8,Mountain House East Village 川山甲,"23 St Marks Pl, New York, NY 10003, USA",40.7291176,-73.9885834
ChIJq6qqr8dZwokRNqYPAJcjKas,Hudson River Park,"353 West St, New York, NY 10014, USA",40.7288194,-74.01220490000001
ChIJd9SPZTFawokRh9NpOTE-G5k,Dumbo - Manhattan Bridge View,"39-21 Washington St, Brooklyn, NY 11201, USA",40.70331650000001,-73.9895698
ChIJG6qVRAqJsIkRqg4WXhcwS8E,Williamsburg,"Williamsburg, VA, USA",37.2757305,-76.7098049
ChIJ4zGFAZpYwokRGUGph3Mf37k,Central Park,"New York, NY, USA",40.7825547,-73.9655834
ChIJ5bQPhMdZwokRkTwKhVxhP1g,The High Line,"New York, NY 10011, USA",40.747992499999995,-74.0047649
ChIJw2lMFL9ZwokRosAtly52YX4,Chelsea Market,"75 9th Ave, New York, NY 10011, USA",40.7424396,-74.0061439
ChIJgx-LUDlZwokRN6_WQwx4WEc,Mercado Little Spain,"10 Hudson Yards, New York, NY 10001, USA",40.752918099999995,-74.0018896
ChIJsTmHXltZwokRXisc2lNWYrE,Thirteen Water,"208 E 7th St, New York, NY 10009, USA",40.7243157,-73.97999759999999
ChIJF1mkwpxZwokRLSwkdI11UfQ,Setsugekka East Village,"74 E 7th St, New York, NY 10003, USA",40.7272707,-73.9866389
ChIJDyCs8UNZwokRaNcdvn_c6jU,Librae Bakery,"35 Cooper Sq, New York, NY 10003, USA",40.728118599999995,-73.99075239999999
ChIJoWQIeZxZwokRwkS9fNOEdps,Mango Mango Artisan Lab,"23 St Marks Pl, New York, NY 10003, USA",40.7292093,-73.9886257
ChIJmcr2IF9ZwokRr-u_-UTxju4,Wenwen,"1025 Manhattan Ave, Brooklyn, NY 11222, USA",40.7339858,-73.955158
ChIJKbjLf5xZwokRYa6BYJg0Xns,886,"26 St Marks Pl, New York, NY 10003, USA",40.7287968,-73.9887127
ChIJQ-qLx5ZZwokRaM1CC9H0Ii8,Culture An American Yogurt Company & Juice Bar by Culture,"60 W 8th St, New York, NY 10011, USA",40.7333296,-73.99915829999999
ChIJ04qK9Y1ZwokRgw_VSJz_lAY,Song' E Napule,"132 W Houston St, New York, NY 10012, USA",40.727921599999995,-74.0014088
ChIJCar0f49ZwokR6ozLV-dHNTE,Katz's Delicatessen,"205 E Houston St, New York, NY 10002, USA",40.722232999999996,-73.98742899999999
ChIJjzU486hZwokRR1xdL_9PWPU,Osamil,"5 W 31st St, New York, NY 10001, USA",40.746961,-73.9864309
ChIJ5-ZTbqhZwokROw_GJzQx1dw,Take 31,"15 E 31st St, New York, NY 10016, USA",40.7462777,-73.9848246
ChIJPw03jalZwokRmsrs0PAc1bo,Yoon Haeundae Galbi,"8 W 36th St. Unit 245, New York, NY 10018, USA",40.7499624,-73.98445509999999
